STARLINK-31798          
1 59635U 24082E   26068.26914961 -.00002532  00000+0 -82554-4 0  9995
2 59635  43.0027 142.5253 0001021 256.0206 104.0533 15.27569587104740
STARLINK-36554          
1 67502U 26012K   26067.71268370  .00032833  00000+0  11969-2 0  9992
2 67502  42.9934 319.8184 0000695 339.2059  20.8765 15.27591469  7619
